FOX-1CLIFF (AO-95)      
1 43770U 18099N   24008.72155016  .00006783  00000+0  51038-3 0  9992
2 43770  97.5699  70.1663 0014498 186.5238 173.5800 15.02767084278449
ITASAT                  
1 43786U 18099AE  24008.14294611  .00003862  00000+0  29972-3 0  9997
2 43786  97.5366  70.0662 0019064 168.1927 191.9749 15.01790239278386
JY1SAT (JO-97)          
1 43803U 18099AX  24008.13059135  .00006248  00000+0  45633-3 0  9999
2 43803  97.5452  70.6110 0011430 129.1282 231.0962 15.03958931278465
UWE-4                   
1 43880U 18111E   24008.30185276  .00006395  00000+0  44541-3 0  9994
2 43880  97.6227 275.5803 0016939 192.0337 168.0487 15.05675661275191
JAISAT-1                
1 44419U 19038F   24008.74475491  .00049257  00000+0  98724-3 0  9997
2 44419  97.6832   4.6562 0007441 295.5174  64.5305 15.46543165250113
DUCHIFAT-3              
1 44854U 19089C   24008.15224698  .00010343  00000+0  61238-3 0  9996
2 44854  36.9611 302.3033 0009237 223.7487 136.2527 15.10880191223862
TIANYAN 01              
1 44881U 19093C   24008.77416145  .00001129  00000+0  14468-3 0  9994
2 44881  97.8453  88.6167 0015699 124.2945 235.9758 14.83145647219268
RS-44 & BREEZE-KM R/B   
1 44909U 19096E   24008.68432898  .00000057  00000+0  17854-3 0  9992
2 44909  82.5197 211.3959 0218315  66.6145 295.7754 12.79725485188497
BY70-2                  
1 45857U 20042B   24008.76524771  .00032109  00000+0  23630-2 0  9990
2 45857  97.9244  95.9772 0007126  38.3067 321.8662 15.03279366190277
SALSAT                  
1 46495U 20068K   24008.42721840  .00005533  00000+0  34051-3 0  9997
2 46495  97.7963 324.2565 0015694 136.7636 223.4827 15.10337965180024
RADFXSAT-2 (AO-109)     
1 47311U 21002C   24008.33141827  .00066632  00000+0  83539-3 0  9997
2 47311  60.6748 340.2861 0028819  57.4015 302.9865 15.58800209166029
UVSQ-SAT                
1 47438U 21006AB  24008.46861391  .00021366  00000+0  65803-3 0  9999
2 47438  97.3563  68.4904 0009312  75.9124 284.3153 15.33609304164006
LEDSAT                  
1 49069U 21073D   24008.67496977  .00011483  00000+0  54716-3 0  9992
2 49069  97.4606  81.4582 0022754 125.0349 235.3025 15.19049067132046
XW-3 (CAS-9)            
1 50466U 21131B   24008.76520842  .00000623  00000+0  21512-3 0  9991
2 50466  98.5396  94.5858 0003362 236.4341 123.6526 14.39284025106920
TEVEL-3                 
1 50988U 22002E   24008.78252475  .00035952  00000+0  95892-3 0  9999
2 50988  97.4078  80.7148 0004958 218.7739 141.3150 15.38045485110211
TEVEL-8                 
1 50989U 22002F   24008.74651056  .00036476  00000+0  97589-3 0  9991
2 50989  97.4094  80.7590 0004906 217.1388 142.9518 15.37947758110204
TEVEL-5                 
1 50998U 22002Q   24008.77372174  .00038654  00000+0  97826-3 0  9999
2 50998  97.4072  81.4232 0005794 211.4733 148.6166 15.39639901110266
TEVEL-6                 
1 50999U 22002R   24008.77333873  .00038317  00000+0  97054-3 0  9992
2 50999  97.4070  81.4103 0005809 211.1337 148.9565 15.39616057110269
TEVEL-1                 
1 51013U 22002AF  24008.73533702  .00036289  00000+0  97048-3 0  9998
2 51013  97.4069  80.5691 0004798 218.1211 141.9695 15.37961966110202
TEVEL-7                 
1 51062U 22002CG  24008.74315694  .00036500  00000+0  97477-3 0  9993
2 51062  97.4090  80.7258 0004936 217.4857 142.6045 15.38003071110205
TEVEL-4                 
1 51063U 22002CH  24008.76049450  .00034831  00000+0  93458-3 0  9990
2 51063  97.4087  80.6951 0004862 217.1292 142.9617 15.37868485110204
TEVEL-2                 
1 51069U 22002CP  24008.78297032  .00036131  00000+0  96309-3 0  9992
2 51069  97.4075  80.6822 0004923 218.2878 141.8018 15.38063945110217
GREENCUBE               
1 53106U 22080B   24003.05315120 -.00000003  00000+0  00000+0 0  9995
2 53106  70.1387 250.2490 0008280 141.6982 218.4267  6.42557472 34597
CYCLOPS (RS29S)         
1 53373U 22096D   24008.79598808  .00139173  00000+0  12431-2 0  9994
2 53373  97.3974 285.5607 0004811  93.2256 266.9556 15.67950376 79538
MONITOR-1 (RS32S)       
1 53374U 22096E   24008.82217234  .00106820  00000+0  11302-2 0  9999
2 53374  97.3918 284.7582 0005075  96.6604 263.5233 15.63797410 79491
KUZBASS-300 (RS34S)     
1 53375U 22096F   24008.80853417  .00053834  00000+0  85238-3 0  9993
2 53375  97.4004 283.1154 0004254  91.7422 268.4318 15.53252472 79377
UTMN (RS23S)            
1 53376U 22096G   24008.81552747  .00061096  00000+0  89136-3 0  9997
2 53376  97.3981 283.5342 0003880  95.1389 265.0308 15.55477329 79406
MIET-AIS (RS28S)        
1 53377U 22096H   24008.77063794  .00048725  00000+0  83397-3 0  9999
2 53377  97.4019 282.7475 0003564  87.8696 272.2964 15.51097590 79341
KAI-1 (RS26S)           
1 53378U 22096J   24008.81003617  .00036120  00000+0  71707-3 0  9991
2 53378  97.4053 281.8466 0003295  90.8810 269.2817 15.46911435 79286
ISOI (RS19S)            
1 53381U 22096M   24008.77578868  .00050105  00000+0  81787-3 0  9993
2 53381  97.4034 283.3156 0004305  65.9774 294.1929 15.52420250 79386
CUBESX-HSE-2 (RS21S)    
1 53383U 22096P   24008.77830620  .00060271  00000+0  88905-3 0  9996
2 53383  97.3989 283.7576 0005151  63.8125 296.3658 15.55173647 79418
SIREN (RS30S)           
1 53384U 22096Q   24008.80185428  .00043374  00000+0  78300-3 0  9993
2 53384  97.4024 282.7235 0004690  63.8045 296.3688 15.49605992 79340
GEOSCAN-EDELVEIS (RS20S)
1 53385U 22096R   24008.81546832  .00170402  00000+0  11891-2 0  9999
2 53385  97.3943 286.8527 0005742  71.8392 288.3497 15.73791705 79650
CAS-5A (FO-118)         
1 54684U 22167C   24008.79380746  .00016460  00000+0  74434-3 0  9994
2 54684  97.5835 151.2705 0011750 348.5294  11.5671 15.20944069 59854
STRATOSAT-TK 1 (RS52S)  
1 57167U 23091B   24008.81563105  .00010020  00000+0  66669-3 0  9992
2 57167  97.6390  62.7769 0015769 311.1182  48.8684 15.07243346 29367
UMKA 1 (RS40S)          
1 57172U 23091G   24008.78114615  .00003779  00000+0  26764-3 0  9997
2 57172  97.6377  62.5151 0016414 311.1735  48.8075 15.05320154 29346
CUBESX-HSE 3 (RS42S)    
1 57178U 23091N   24008.76607363  .00006901  00000+0  47838-3 0  9993
2 57178  97.6415  62.6290 0017344 304.8983  55.0613 15.05819471 29340
MONITOR-4 (RS57S)       
1 57182U 23091S   24008.78303316  .00004801  00000+0  33637-3 0  9990
2 57182  97.6404  62.5784 0017379 306.3402  53.6220 15.05579426 29342
MONITOR-2 (RS39S)       
1 57184U 23091U   24008.77432879  .00003893  00000+0  27271-3 0  9995
2 57184  97.6406  62.7538 0013598 299.9953  59.9924 15.05748230 29354
SVYATOBOR 1 (RS60S)     
1 57187U 23091X   24008.78373647  .00004526  00000+0  30992-3 0  9994
2 57187  97.6413  62.8980 0013026 298.1582  61.8328 15.06519170 29363
VIZARD-METEO (RS38S)    
1 57189U 23091Z   24008.78449153  .00005730  00000+0  38329-3 0  9992
2 57189  97.6407  63.0316 0011978 296.2839  63.7157 15.07288605 29371
NANOZOND 1 (RS49S)      
1 57190U 23091AA  24008.77482754  .00008666  00000+0  55994-3 0  9995
2 57190  97.6381  63.1301 0010775 302.5042  57.5144 15.08425933 29386
POLYTECH-UNIVERSE 3 (R*)
1 57191U 23091AB  24008.76677472  .00004649  00000+0  32549-3 0  9996
2 57191  97.6374  62.5286 0019514 317.0029  42.9672 15.05588427 29345
UTMN 2 (RS27S)          
1 57203U 23091AP  24008.80374759  .00005920  00000+0  39841-3 0  9992
2 57203  97.6414  63.0050 0012127 296.9948  63.0040 15.07041984 29377
ARCCUBE 1 (RS25S)       
1 57205U 23091AR  24008.82620359  .00011007  00000+0  70267-3 0  9996
2 57205  97.6365  63.1709 0011111 304.2361  55.7814 15.08794779 29397
KUZGTU 1 (RS47S)        
1 57217U 23091AV  24008.76509009  .00006640  00000+0  46107-3 0  9993
2 57217  97.6391  62.5679 0017259 306.3299  53.6334 15.05773090 29349
HADES-D (SO-121)        
1 58567U 23174CY  24008.36646294  .00020745  00000+0  10844-2 0  9998
2 58567  97.4771  85.3504 0015858  73.1796 287.1175 15.15792204  9324
